NORAD_CAT_ID,OBJECT_NAME,OBJECT_TYPE,EPOCH,MEAN_MOTION,ECCENTRICITY,INCLINATION,RA_OF_ASC_NODE,ARG_OF_PERICENTER,MEAN_ANOMALY,BSTAR,MEAN_MOTION_DOT,MEAN_MOTION_DDOT,TLE_LINE0,TLE_LINE1,TLE_LINE2,SEMIMAJOR_AXIS,PERIOD,APOGEE,PERIGEE,DECAYED
49165.0,STARLINK-3052,PAYLOAD,2022-12-26 07:14:19,14.98326048,0.0002827,70.0007,2.8974,266.71,93.3735,3.4767e-05,3.22e-06,0.0,0 STARLINK-3052,1 49165U 21082AM  22360.30160963  .00000322  00000-0  34767-4 0  9997,2 49165  70.0007   2.8974 0002827 266.7100  93.3735 14.98326048 72017,6950.205,96.107,574.035,570.105,0.0
49165.0,STARLINK-3052,PAYLOAD,2022-12-26 13:38:51,14.98327294,0.0002889,70.0003,2.2241,266.907,93.1759,5.0054e-05,5.04e-06,0.0,0 STARLINK-3052,1 49165U 21082AM  22360.56864912  .00000504  00000-0  50054-4 0  9999,2 49165  70.0003   2.2241 0002889 266.9070  93.1759 14.98327294 72052,6950.201,96.107,574.0740000000002,570.058,0.0
49165.0,STARLINK-3052,PAYLOAD,2022-12-27 07:16:18,14.98369439,0.0002619,70.0003,0.3726,261.7745,98.3117,-0.00046811,-5.679e-05,0.0,0 STARLINK-3052,1 49165U 21082AM  22361.30299145 -.00005679  00000-0 -46811-3 0  9997,2 49165  70.0003   0.3726 0002619 261.7745  98.3117 14.98369439 72177,6950.071,96.104,573.756,570.116,0.0
49165.0,STARLINK-3052,PAYLOAD,2022-12-27 16:53:07,14.98324454,0.0002688,70.0003,359.3626,263.1483,96.937,0.00059,6.953e-05,0.0,0 STARLINK-3052,1 49165U 21082AM  22361.70356192  .00006953  00000-0  59000-3 0  9995,2 49165  70.0003 359.3626 0002688 263.1483  96.9370 14.98324454 72234,6950.21,96.107,573.943,570.207,0.0
49165.0,STARLINK-3052,PAYLOAD,2022-12-27 23:17:39,14.9833544,0.0002757,70.0005,358.6895,267.9808,92.1036,0.00017963,2.051e-05,0.0,0 STARLINK-3052,1 49165U 21082AM  22361.97060041  .00002051  00000-0  17963-3 0  9996,2 49165  70.0005 358.6895 0002757 267.9808  92.1036 14.98335440 72263,6950.176,96.107,573.957,570.125,0.0
49165.0,STARLINK-3052,PAYLOAD,2022-12-28 00:53:48,14.983336499999998,0.0002798,70.0004,358.5213,267.8514,92.2324,0.00015654,1.775e-05,0.0,0 STARLINK-3052,1 49165U 21082AM  22362.03736133  .00001775  00000-0  15654-3 0  9993,2 49165  70.0004 358.5213 0002798 267.8514  92.2324 14.98333650 72276,6950.182,96.107,573.991,570.102,0.0
49165.0,STARLINK-3052,PAYLOAD,2022-12-29 05:44:13,14.98328955,0.0002633,70.001,355.4921,265.8597,94.2261,-3.9194e-05,-5.61e-06,0.0,0 STARLINK-3052,1 49165U 21082AM  22363.23904855 -.00000561  00000-0 -39194-4 0  9994,2 49165  70.0010 355.4921 0002633 265.8597  94.2261 14.98328955 72467,6950.196,96.107,573.891,570.231,0.0
49165.0,STARLINK-3052,PAYLOAD,2022-12-29 10:32:37,14.98329172,0.0002663,70.0009,354.987,265.8157,94.2698,-4.2441e-05,-5.99e-06,0.0,0 STARLINK-3052,1 49165U 21082AM  22363.43932842 -.00000599  00000-0 -42441-4 0  9993,2 49165  70.0009 354.9870 0002663 265.8157  94.2698 14.98329172 72485,6950.195,96.107,573.911,570.21,0.0
49165.0,STARLINK-3052,PAYLOAD,2022-12-29 16:57:09,14.983363399999998,0.000281,70.0006,354.3135,267.2127,92.871,8.6254e-06,1e-07,0.0,0 STARLINK-3052,1 49165U 21082AM  22363.70636186  .00000010  00000-0  86254-5 0  9992,2 49165  70.0006 354.3135 0002810 267.2127  92.8710 14.98336340 72537,6950.1730000000025,96.107,573.991,570.085,0.0
49165.0,STARLINK-3052,PAYLOAD,2022-12-30 08:58:29,14.98342383,0.000298,70.0003,352.6296,267.9202,92.1616,0.00017228,1.964e-05,0.0,0 STARLINK-3052,1 49165U 21082AM  22364.37395286  .00001964  00000-0  17228-3 0  9991,2 49165  70.0003 352.6296 0002980 267.9202  92.1616 14.98342383 72635,6950.155,96.106,574.091,569.948,0.0
49165.0,STARLINK-3052,PAYLOAD,2022-12-31 00:59:50,14.98339047,0.0003156,70.0021,350.9469,269.0885,90.9913,0.00023157,2.672e-05,0.0,0 STARLINK-3052,1 49165U 21082AM  22365.04155572  .00002672  00000-0  23157-3 0  9993,2 49165  70.0021 350.9469 0003156 269.0885  90.9913 14.98339047 72734,6950.165,96.106,574.2230000000002,569.836,0.0
49165.0,STARLINK-3052,PAYLOAD,2022-12-31 10:36:38,14.98350566,0.0003128,70.0023,349.9365,268.1937,91.8864,0.0004636999999999,5.447e-05,0.0,0 STARLINK-3052,1 49165U 21082AM  22365.44210918  .00005447  00000-0  46370-3 0  9998,2 49165  70.0023 349.9365 0003128 268.1937  91.8864 14.98350566 72785,6950.129,96.106,574.168,569.82,0.0
49165.0,STARLINK-3052,PAYLOAD,2022-12-31 17:01:10,14.98343656,0.0003051,70.0027,349.2626,267.9653,92.1156,0.0001899999999999,2.176e-05,0.0,0 STARLINK-3052,1 49165U 21082AM  22365.70914914  .00002176  00000-0  19000-3 0  9990,2 49165  70.0027 349.2626 0003051 267.9653  92.1156 14.98343656 72824,6950.151,96.106,574.136,569.895,0.0
49165.0,STARLINK-3052,PAYLOAD,2023-01-01 05:50:15,14.98329935,0.000303,70.0025,347.9162,266.8786,93.2026,-0.00020167,-2.498e-05,0.0,0 STARLINK-3052,1 49165U 21082AM  23001.24323132 -.00002498  00000-0 -20167-3 0  9998,2 49165  70.0025 347.9162 0003030 266.8786  93.2026 14.98329935 72916,6950.193,96.107,574.164,569.952,0.0
49165.0,STARLINK-3052,PAYLOAD,2023-01-01 10:38:39,14.98329976,0.0003119,70.0021,347.4116,268.4052,91.675,-0.0001210999999999,-1.538e-05,0.0,0 STARLINK-3052,1 49165U 21082AM  23001.44351291 -.00001538  00000-0 -12110-3 0  9990,2 49165  70.0021 347.4116 0003119 268.4052  91.6750 14.98329976 72931,6950.193,96.107,574.226,569.89,0.0
49165.0,STARLINK-3052,PAYLOAD,2023-01-02 05:52:16,14.98322174,0.0003164,70.002,345.3914,268.2049,91.8748,-0.00011166,-1.425e-05,0.0,0 STARLINK-3052,1 49165U 21082AM  23002.24463906 -.00001425  00000-0 -11166-3 0  9991,2 49165  70.0020 345.3914 0003164 268.2049  91.8748 14.98322174 73064,6950.217,96.108,574.281,569.883,0.0
49165.0,STARLINK-3052,PAYLOAD,2023-01-02 10:40:41,14.9832285,0.0003063,70.002,344.8867,267.7597,92.3211,-3.2823e-05,-4.85e-06,0.0,0 STARLINK-3052,1 49165U 21082AM  23002.44492036 -.00000485  00000-0 -32823-4 0  9998,2 49165  70.0020 344.8867 0003063 267.7597  92.3211 14.98322850 73089,6950.215,96.107,574.2090000000002,569.951,0.0
49165.0,STARLINK-3052,PAYLOAD,2023-01-02 15:29:05,14.98323822,0.0003096,70.0019,344.3817,267.5329,92.5476,3.9657e-05,3.8e-06,0.0,0 STARLINK-3052,1 49165U 21082AM  23002.64520122  .00000380  00000-0  39657-4 0  9992,2 49165  70.0019 344.3817 0003096 267.5329  92.5476 14.98323822 73113,6950.212,96.107,574.229,569.925,0.0
49165.0,STARLINK-3052,PAYLOAD,2023-01-03 10:42:42,14.98335373,0.0003049,70.0018,342.3617,267.6942,92.3868,0.0005385,6.339e-05,0.0,0 STARLINK-3052,1 49165U 21082AM  23003.44632305  .00006339  00000-0  53850-3 0  9998,2 49165  70.0018 342.3617 0003049 267.6942  92.3868 14.98335373 73249,6950.176,96.107,574.16,569.922,0.0
49165.0,STARLINK-3052,PAYLOAD,2023-01-04 02:44:03,14.98330774,0.000309,70.0019,340.6784,267.405,92.6756,0.00024546,2.837e-05,0.0,0 STARLINK-3052,1 49165U 21082AM  23004.11392428  .00002837  00000-0  24546-3 0  9991,2 49165  70.0019 340.6784 0003090 267.4050  92.6756 14.98330774 73340,6950.19,96.107,574.203,569.908,0.0
49165.0,STARLINK-3052,PAYLOAD,2023-01-04 10:44:43,14.98338442,0.0003089,70.0019,339.8367,266.95,93.1306,0.00042859,5.026e-05,0.0,0 STARLINK-3052,1 49165U 21082AM  23004.44772227  .00005026  00000-0  42859-3 0  9996,2 49165  70.0019 339.8367 0003089 266.9500  93.1306 14.98338442 73380,6950.167,96.106,574.179,569.885,0.0
49165.0,STARLINK-3052,PAYLOAD,2023-01-04 21:57:39,14.98349755,0.0003105,70.002,338.6585,266.8182,93.2622,0.0005878999999999,6.932e-05,0.0,0 STARLINK-3052,1 49165U 21082AM  23004.91503554  .00006932  00000-0  58790-3 0  9991,2 49165  70.0020 338.6585 0003105 266.8182  93.2622 14.98349755 73454,6950.132,96.106,574.155,569.839,0.0
49165.0,STARLINK-3052,PAYLOAD,2023-01-05 04:22:10,14.98363121,0.0003083999999999,70.0027,337.9858,266.7576,93.323,0.0010974,0.00013037,0.0,0 STARLINK-3052,1 49165U 21082AM  23005.18206989  .00013037  00000-0  10974-2 0  9998,2 49165  70.0027 337.9858 0003084 266.7576  93.3230 14.98363121 73503,6950.09,96.105,574.099,569.812,0.0
49165.0,STARLINK-3052,PAYLOAD,2023-01-05 10:46:43,14.98336946,0.0003405,70.0022,337.3118,263.1399,96.9373,-0.00049678,-6.017e-05,0.0,0 STARLINK-3052,1 49165U 21082AM  23005.44911009 -.00006017  00000-0 -49678-3 0  9999,2 49165  70.0022 337.3118 0003405 263.1399  96.9373 14.98336946 73548,6950.170999999999,96.107,574.403,569.67,0.0
49165.0,STARLINK-3052,PAYLOAD,2023-01-05 15:35:07,14.98336294,0.0003224,70.0023,336.8068,266.0339,94.0451,-0.00036029,-4.39e-05,0.0,0 STARLINK-3052,1 49165U 21082AM  23005.64939032 -.00004390  00000-0 -36029-3 0  9995,2 49165  70.0023 336.8068 0003224 266.0339  94.0451 14.98336294 73566,6950.1730000000025,96.107,574.279,569.798,0.0
49165.0,STARLINK-3052,PAYLOAD,2023-01-06 09:12:35,14.9834901,0.0003781,70.0027,334.9553,269.79200000000003,90.2806,0.0011765,0.0001398,0.0,0 STARLINK-3052,1 49165U 21082AM  23006.38374745  .00013980  00000-0  11765-2 0  9993,2 49165  70.0027 334.9553 0003781 269.7920  90.2806 14.98349010 73687,6950.134,96.106,574.627,569.371,0.0
49165.0,STARLINK-3052,PAYLOAD,2023-01-07 04:26:12,14.98341076,0.0003068,70.0025,332.9347,266.3814,93.6994,0.00068806,8.129e-05,0.0,0 STARLINK-3052,1 49165U 21082AM  23007.18486996  .00008129  00000-0  68806-3 0  9992,2 49165  70.0025 332.9347 0003068 266.3814  93.6994 14.98341076 73800,6950.1590000000015,96.106,574.156,569.891,0.0
49165.0,STARLINK-3052,PAYLOAD,2023-01-07 09:14:36,14.98335746,0.0003145,70.0024,332.4306,264.913,95.167,0.00037278,4.358e-05,0.0,0 STARLINK-3052,1 49165U 21082AM  23007.38515001  .00004358  00000-0  37278-3 0  9993,2 49165  70.0024 332.4306 0003145 264.9130  95.1670 14.98335746 73838,6950.175,96.107,574.226,569.854,0.0
49165.0,STARLINK-3052,PAYLOAD,2023-01-08 04:28:14,14.983218300000004,0.0002863,70.0029,330.4106,266.7466,93.3366,-0.00014416,-1.812e-05,0.0,0 STARLINK-3052,1 49165U 21082AM  23008.18627841 -.00001812  00000-0 -14416-3 0  9991,2 49165  70.0029 330.4106 0002863 266.7466  93.3366 14.98321830 73951,6950.218000000002,96.108,574.073,570.0930000000002,0.0
